ORBCOMM FM33 [-]        
1 25983U 99065D   24060.46786616  .00001202  00000+0  44578-3 0  9997
2 25983  45.0292  86.3709 0009356 211.9023 301.7022 14.37359212267844
ORBCOMM FM36 [-]        
1 25984U 99065E   24060.58129191  .00001333  00000+0  51083-3 0  9994
2 25984  45.0392 170.1141 0002260 103.6473 256.4626 14.35230771266314
ORBCOMM FM35 [+]        
1 25985U 99065F   24060.67363542  .00001225  00000+0  47669-3 0  9990
2 25985  45.0390 172.1160 0004425 199.5955 160.4723 14.34866400266911
ORBCOMM FM34 [-]        
1 25986U 99065G   24060.57256952  .00001233  00000+0  47988-3 0  9999
2 25986  45.0385 173.1098 0003835 152.9375 207.1673 14.34824352266867
ORBCOMM FM38 [-]        
1 33060U 08031A   24060.34280039  .00002363  00000+0  36059-3 0  9994
2 33060  48.4414  45.7548 0005087 173.6678 186.4301 14.77024697844602
ORBCOMM FM41 [-]        
1 33061U 08031B   24060.40562223  .00002221  00000+0  34273-3 0  9999
2 33061  48.4450  51.9130 0004124 160.0076   0.0517 14.76761598844115
ORBCOMM FM29 [-]        
1 33062U 08031C   24060.45825834  .00002131  00000+0  33062-3 0  9990
2 33062  48.4398  59.6901 0005942 157.2963   4.2961 14.76677062844032
ORBCOMM FM39 [-]        
1 33063U 08031D   24060.75323894  .00001681  00000+0  27278-3 0  9994
2 33063  48.4405  78.2961 0006725 132.6384 227.5097 14.75745545844209
