<?xml version="1.0" encoding="UTF-8"?>
<ndm xmlns:xsi="http://www.w3.org/2001/XMLSchema-instance" xsi:noNamespaceSchemaLocation="https://sanaregistry.org/r/ndmxml_unqualified/ndmxml-2.0.0-master-2.0.xsd">
<omm id="CCSDS_OMM_VERS" version="2.0">
<header><CREATION_DATE/><ORIGINATOR/></header><body><segment><metadata><OBJECT_NAME>ORBCOMM FM33 [-]</OBJECT_NAME><OBJECT_ID>1999-065D</OBJECT_ID><CENTER_NAME>EARTH</CENTER_NAME><REF_FRAME>TEME</REF_FRAME><TIME_SYSTEM>UTC</TIME_SYSTEM><MEAN_ELEMENT_THEORY>SGP4</MEAN_ELEMENT_THEORY></metadata><data><meanElements><EPOCH>2024-02-29T11:13:43.636224</EPOCH><MEAN_MOTION>14.37359212</MEAN_MOTION><ECCENTRICITY>.0009356</ECCENTRICITY><INCLINATION>45.0292</INCLINATION><RA_OF_ASC_NODE>86.3709</RA_OF_ASC_NODE><ARG_OF_PERICENTER>211.9023</ARG_OF_PERICENTER><MEAN_ANOMALY>301.7022</MEAN_ANOMALY></meanElements><tleParameters><EPHEMERIS_TYPE>0</EPHEMERIS_TYPE><CLASSIFICATION_TYPE>U</CLASSIFICATION_TYPE><NORAD_CAT_ID>25983</NORAD_CAT_ID><ELEMENT_SET_NO>999</ELEMENT_SET_NO><REV_AT_EPOCH>26784</REV_AT_EPOCH><BSTAR>.44578E-3</BSTAR><MEAN_MOTION_DOT>.1202E-4</MEAN_MOTION_DOT><MEAN_MOTION_DDOT>0</MEAN_MOTION_DDOT></tleParameters></data></segment></body></omm>
<omm id="CCSDS_OMM_VERS" version="2.0">
<header><CREATION_DATE/><ORIGINATOR/></header><body><segment><metadata><OBJECT_NAME>ORBCOMM FM36 [-]</OBJECT_NAME><OBJECT_ID>1999-065E</OBJECT_ID><CENTER_NAME>EARTH</CENTER_NAME><REF_FRAME>TEME</REF_FRAME><TIME_SYSTEM>UTC</TIME_SYSTEM><MEAN_ELEMENT_THEORY>SGP4</MEAN_ELEMENT_THEORY></metadata><data><meanElements><EPOCH>2024-02-29T13:57:03.621024</EPOCH><MEAN_MOTION>14.35230771</MEAN_MOTION><ECCENTRICITY>.000226</ECCENTRICITY><INCLINATION>45.0392</INCLINATION><RA_OF_ASC_NODE>170.1141</RA_OF_ASC_NODE><ARG_OF_PERICENTER>103.6473</ARG_OF_PERICENTER><MEAN_ANOMALY>256.4626</MEAN_ANOMALY></meanElements><tleParameters><EPHEMERIS_TYPE>0</EPHEMERIS_TYPE><CLASSIFICATION_TYPE>U</CLASSIFICATION_TYPE><NORAD_CAT_ID>25984</NORAD_CAT_ID><ELEMENT_SET_NO>999</ELEMENT_SET_NO><REV_AT_EPOCH>26631</REV_AT_EPOCH><BSTAR>.51083E-3</BSTAR><MEAN_MOTION_DOT>.1333E-4</MEAN_MOTION_DOT><MEAN_MOTION_DDOT>0</MEAN_MOTION_DDOT></tleParameters></data></segment></body></omm>
<omm id="CCSDS_OMM_VERS" version="2.0">
<header><CREATION_DATE/><ORIGINATOR/></header><body><segment><metadata><OBJECT_NAME>ORBCOMM FM35 [+]</OBJECT_NAME><OBJECT_ID>1999-065F</OBJECT_ID><CENTER_NAME>EARTH</CENTER_NAME><REF_FRAME>TEME</REF_FRAME><TIME_SYSTEM>UTC</TIME_SYSTEM><MEAN_ELEMENT_THEORY>SGP4</MEAN_ELEMENT_THEORY></metadata><data><meanElements><EPOCH>2024-02-29T16:10:02.100288</EPOCH><MEAN_MOTION>14.34866400</MEAN_MOTION><ECCENTRICITY>.0004425</ECCENTRICITY><INCLINATION>45.0390</INCLINATION><RA_OF_ASC_NODE>172.1160</RA_OF_ASC_NODE><ARG_OF_PERICENTER>199.5955</ARG_OF_PERICENTER><MEAN_ANOMALY>160.4723</MEAN_ANOMALY></meanElements><tleParameters><EPHEMERIS_TYPE>0</EPHEMERIS_TYPE><CLASSIFICATION_TYPE>U</CLASSIFICATION_TYPE><NORAD_CAT_ID>25985</NORAD_CAT_ID><ELEMENT_SET_NO>999</ELEMENT_SET_NO><REV_AT_EPOCH>26691</REV_AT_EPOCH><BSTAR>.47669E-3</BSTAR><MEAN_MOTION_DOT>.1225E-4</MEAN_MOTION_DOT><MEAN_MOTION_DDOT>0</MEAN_MOTION_DDOT></tleParameters></data></segment></body></omm>
<omm id="CCSDS_OMM_VERS" version="2.0">
<header><CREATION_DATE/><ORIGINATOR/></header><body><segment><metadata><OBJECT_NAME>ORBCOMM FM34 [-]</OBJECT_NAME><OBJECT_ID>1999-065G</OBJECT_ID><CENTER_NAME>EARTH</CENTER_NAME><REF_FRAME>TEME</REF_FRAME><TIME_SYSTEM>UTC</TIME_SYSTEM><MEAN_ELEMENT_THEORY>SGP4</MEAN_ELEMENT_THEORY></metadata><data><meanElements><EPOCH>2024-02-29T13:44:30.006528</EPOCH><MEAN_MOTION>14.34824352</MEAN_MOTION><ECCENTRICITY>.0003835</ECCENTRICITY><INCLINATION>45.0385</INCLINATION><RA_OF_ASC_NODE>173.1098</RA_OF_ASC_NODE><ARG_OF_PERICENTER>152.9375</ARG_OF_PERICENTER><MEAN_ANOMALY>207.1673</MEAN_ANOMALY></meanElements><tleParameters><EPHEMERIS_TYPE>0</EPHEMERIS_TYPE><CLASSIFICATION_TYPE>U</CLASSIFICATION_TYPE><NORAD_CAT_ID>25986</NORAD_CAT_ID><ELEMENT_SET_NO>999</ELEMENT_SET_NO><REV_AT_EPOCH>26686</REV_AT_EPOCH><BSTAR>.47988E-3</BSTAR><MEAN_MOTION_DOT>.1233E-4</MEAN_MOTION_DOT><MEAN_MOTION_DDOT>0</MEAN_MOTION_DDOT></tleParameters></data></segment></body></omm>
<omm id="CCSDS_OMM_VERS" version="2.0">
<header><CREATION_DATE/><ORIGINATOR/></header><body><segment><metadata><OBJECT_NAME>ORBCOMM FM38 [-]</OBJECT_NAME><OBJECT_ID>2008-031A</OBJECT_ID><CENTER_NAME>EARTH</CENTER_NAME><REF_FRAME>TEME</REF_FRAME><TIME_SYSTEM>UTC</TIME_SYSTEM><MEAN_ELEMENT_THEORY>SGP4</MEAN_ELEMENT_THEORY></metadata><data><meanElements><EPOCH>2024-02-29T08:13:37.953696</EPOCH><MEAN_MOTION>14.77024697</MEAN_MOTION><ECCENTRICITY>.0005087</ECCENTRICITY><INCLINATION>48.4414</INCLINATION><RA_OF_ASC_NODE>45.7548</RA_OF_ASC_NODE><ARG_OF_PERICENTER>173.6678</ARG_OF_PERICENTER><MEAN_ANOMALY>186.4301</MEAN_ANOMALY></meanElements><tleParameters><EPHEMERIS_TYPE>0</EPHEMERIS_TYPE><CLASSIFICATION_TYPE>U</CLASSIFICATION_TYPE><NORAD_CAT_ID>33060</NORAD_CAT_ID><ELEMENT_SET_NO>999</ELEMENT_SET_NO><REV_AT_EPOCH>84460</REV_AT_EPOCH><BSTAR>.36059E-3</BSTAR><MEAN_MOTION_DOT>.2363E-4</MEAN_MOTION_DOT><MEAN_MOTION_DDOT>0</MEAN_MOTION_DDOT></tleParameters></data></segment></body></omm>
<omm id="CCSDS_OMM_VERS" version="2.0">
<header><CREATION_DATE/><ORIGINATOR/></header><body><segment><metadata><OBJECT_NAME>ORBCOMM FM41 [-]</OBJECT_NAME><OBJECT_ID>2008-031B</OBJECT_ID><CENTER_NAME>EARTH</CENTER_NAME><REF_FRAME>TEME</REF_FRAME><TIME_SYSTEM>UTC</TIME_SYSTEM><MEAN_ELEMENT_THEORY>SGP4</MEAN_ELEMENT_THEORY></metadata><data><meanElements><EPOCH>2024-02-29T09:44:05.760672</EPOCH><MEAN_MOTION>14.76761598</MEAN_MOTION><ECCENTRICITY>.0004124</ECCENTRICITY><INCLINATION>48.4450</INCLINATION><RA_OF_ASC_NODE>51.9130</RA_OF_ASC_NODE><ARG_OF_PERICENTER>160.0076</ARG_OF_PERICENTER><MEAN_ANOMALY>0.0517</MEAN_ANOMALY></meanElements><tleParameters><EPHEMERIS_TYPE>0</EPHEMERIS_TYPE><CLASSIFICATION_TYPE>U</CLASSIFICATION_TYPE><NORAD_CAT_ID>33061</NORAD_CAT_ID><ELEMENT_SET_NO>999</ELEMENT_SET_NO><REV_AT_EPOCH>84411</REV_AT_EPOCH><BSTAR>.34273E-3</BSTAR><MEAN_MOTION_DOT>.2221E-4</MEAN_MOTION_DOT><MEAN_MOTION_DDOT>0</MEAN_MOTION_DDOT></tleParameters></data></segment></body></omm>
<omm id="CCSDS_OMM_VERS" version="2.0">
<header><CREATION_DATE/><ORIGINATOR/></header><body><segment><metadata><OBJECT_NAME>ORBCOMM FM29 [-]</OBJECT_NAME><OBJECT_ID>2008-031C</OBJECT_ID><CENTER_NAME>EARTH</CENTER_NAME><REF_FRAME>TEME</REF_FRAME><TIME_SYSTEM>UTC</TIME_SYSTEM><MEAN_ELEMENT_THEORY>SGP4</MEAN_ELEMENT_THEORY></metadata><data><meanElements><EPOCH>2024-02-29T10:59:53.520576</EPOCH><MEAN_MOTION>14.76677062</MEAN_MOTION><ECCENTRICITY>.0005942</ECCENTRICITY><INCLINATION>48.4398</INCLINATION><RA_OF_ASC_NODE>59.6901</RA_OF_ASC_NODE><ARG_OF_PERICENTER>157.2963</ARG_OF_PERICENTER><MEAN_ANOMALY>4.2961</MEAN_ANOMALY></meanElements><tleParameters><EPHEMERIS_TYPE>0</EPHEMERIS_TYPE><CLASSIFICATION_TYPE>U</CLASSIFICATION_TYPE><NORAD_CAT_ID>33062</NORAD_CAT_ID><ELEMENT_SET_NO>999</ELEMENT_SET_NO><REV_AT_EPOCH>84403</REV_AT_EPOCH><BSTAR>.33062E-3</BSTAR><MEAN_MOTION_DOT>.2131E-4</MEAN_MOTION_DOT><MEAN_MOTION_DDOT>0</MEAN_MOTION_DDOT></tleParameters></data></segment></body></omm>
<omm id="CCSDS_OMM_VERS" version="2.0">
<header><CREATION_DATE/><ORIGINATOR/></header><body><segment><metadata><OBJECT_NAME>ORBCOMM FM39 [-]</OBJECT_NAME><OBJECT_ID>2008-031D</OBJECT_ID><CENTER_NAME>EARTH</CENTER_NAME><REF_FRAME>TEME</REF_FRAME><TIME_SYSTEM>UTC</TIME_SYSTEM><MEAN_ELEMENT_THEORY>SGP4</MEAN_ELEMENT_THEORY></metadata><data><meanElements><EPOCH>2024-02-29T18:04:39.844416</EPOCH><MEAN_MOTION>14.75745545</MEAN_MOTION><ECCENTRICITY>.0006725</ECCENTRICITY><INCLINATION>48.4405</INCLINATION><RA_OF_ASC_NODE>78.2961</RA_OF_ASC_NODE><ARG_OF_PERICENTER>132.6384</ARG_OF_PERICENTER><MEAN_ANOMALY>227.5097</MEAN_ANOMALY></meanElements><tleParameters><EPHEMERIS_TYPE>0</EPHEMERIS_TYPE><CLASSIFICATION_TYPE>U</CLASSIFICATION_TYPE><NORAD_CAT_ID>33063</NORAD_CAT_ID><ELEMENT_SET_NO>999</ELEMENT_SET_NO><REV_AT_EPOCH>84420</REV_AT_EPOCH><BSTAR>.27278E-3</BSTAR><MEAN_MOTION_DOT>.1681E-4</MEAN_MOTION_DOT><MEAN_MOTION_DDOT>0</MEAN_MOTION_DDOT></tleParameters></data></segment></body></omm>

</ndm>
